QZS-3 (MICHIBIKI-3)     
1 42917U 17048A   26197.29504980 -.00000358  00000+0  00000+0 0  9990
2 42917   0.0637 213.5574 0002560 272.9287  40.9011  1.00271663 32554
AMAZONAS 5              
1 42934U 17053A   26195.04791514 -.00000288  00000+0  00000+0 0  9999
2 42934   0.0321 328.7293 0001029 114.1312 165.2908  1.00268891 32314
INTELSAT 37E (IS-37E)   
1 42950U 17059A   26197.26636300 -.00000151  00000+0  00000+0 0  9999
2 42950   0.0163  55.7138 0002488  63.5268 252.7295  1.00271998 32355
BSAT-4A                 
1 42951U 17059B   26197.29166978 -.00000361  00000+0  00000+0 0  9995
2 42951   0.0390  31.1429 0003423  49.0111  68.8026  1.00271128 32099
QZS-4 (MICHIBIKI-4)     
1 42965U 17062A   26195.60848749 -.00000342  00000+0  00000+0 0  9999
2 42965  40.0921 343.1359 0747384 268.5643  38.8857  1.00290232 32079
SES-11 (ECHOSTAR 105)   
1 42967U 17063A   26197.24419882 -.00000100  00000+0  00000+0 0  9998
2 42967   0.0350 302.5634 0002700 161.6112 172.8562  1.00271164 32017
KOREASAT 5A             
1 42984U 17067A   26197.29236313 -.00000369  00000+0  00000+0 0  9999
2 42984   0.0309 291.5261 0000661 172.6795  48.3013  1.00269106 31825
ALCOMSAT 1              
1 43039U 17078A   26197.26497632 -.00000197  00000+0  00000+0 0  9992
2 43039   0.0498 260.8657 0002260 210.1536 253.6396  1.00268620 31580
SBIRS GEO-3 (USA 282)   
1 43162U 18009A   26197.29634745  .00000117  00000+0  00000+0 0  9996
2 43162   2.2055  13.4592 0001769  98.7250 129.2326  1.00270956 31133
AL YAH 3                
1 43174U 18012A   26197.26592966 -.00000167  00000+0  00000+0 0  9994
2 43174   1.6250  82.7532 0003570  30.9107 256.0543  1.00270653 31134
SES-14                  
1 43175U 18012B   26196.83281597 -.00000289  00000+0  00000+0 0  9997
2 43175   0.0143  35.5032 0000810  85.8206  64.6502  1.00271205  7318
GOES 17                 
1 43226U 18022A   26197.30423661 -.00000194  00000+0  00000+0 0  9993
2 43226   1.0098  85.2390 0000575  76.8342 152.0926  1.00270955 30716
HISPASAT 30W-6          
1 43228U 18023A   26195.12538163 -.00000222  00000+0  00000+0 0  9990
2 43228   0.0444  50.2849 0005130  39.9946 216.8713  1.00270644 30678
SUPERBIRD-B3            
1 43271U 18033A   26197.21711285 -.00000103  00000+0  00000+0 0  9997
2 43271   0.0189  34.8467 0001060  93.3076  46.0601  1.00270843 30357
HYLAS 4                 
1 43272U 18033B   26196.54072455 -.00000244  00000+0  00000+0 0  9998
2 43272   0.0205 300.3338 0000621 217.4704 296.7451  1.00270958 30358
IRNSS-1I                
1 43286U 18035A   26196.75461519  .00000058  00000+0  00000+0 0  9993
2 43286  28.8196  73.7504 0018428 178.5609   8.0026  1.00271937 30362
USA 283                 
1 43339U 18036A   26194.51831527  .00000000  00000+0  00000+0 0  9992
2 43339   0.0181  51.7317 0001010 164.1991  36.1561  1.00270146 25551
COSMOS 2526             
1 43432U 18037A   26196.01215684 -.00000354  00000+0  00000+0 0  9997
2 43432   0.0358 106.6288 0000821 157.1060 161.5486  1.00268298 30231
APSTAR-6C               
1 43450U 18041A   26195.67586814 -.00000326  00000+0  00000+0 0  9998
2 43450   0.0593 289.3735 0000779 296.5328  83.9303  1.00273807 30085
BANGABANDHUSAT-1        
1 43463U 18044A   26197.29348979 -.00000373  00000+0  00000+0 0  9995
2 43463   0.0261  95.9965 0001730  30.6730  32.1964  1.00269578 30000
SES-12                  
1 43488U 18049A   26197.10580823 -.00000280  00000+0  00000+0 0  9990
2 43488   0.0110  22.8659 0000905 238.4383 165.7181  1.00270782 29702
FENGYUN 2H              
1 43491U 18050A   26197.15739200 -.00000139  00000+0  00000+0 0  9999
2 43491   3.1035  78.7266 0002317 134.3526 216.6914  1.00267030 29726
BEIDOU-2 IGSO-7         
1 43539U 18057A   26182.89122331 -.00000033  00000+0  00000+0 0  9998
2 43539  55.1981 162.9292 0104946 237.8611 308.6338  1.00246939 29273
TELSTAR 19V             
1 43562U 18059A   26197.25743628 -.00000290  00000+0  00000+0 0  9995
2 43562   0.0273 144.1741 0002891 346.1156 193.4720  1.00269596 29434
TELKOM 4 (MERAH PUTIH)  
1 43587U 18064A   26197.29132311  .00000000  00000+0  00000+0 0  9991
2 43587   0.0149  58.5968 0001120  69.4915  18.9111  1.00266534 29179
TELSTAR 18V             
1 43611U 18069A   26194.52037462 -.00000298  00000+0  00000+0 0  9998
2 43611   0.0151 318.0250 0001663 158.6111 140.0899  1.00269998 28906
AZERSPACE 2 (IS-38)     
1 43632U 18074A   26196.85118248  .00000000  00000+0  00000+0 0  9997
2 43632   0.0246  58.5053 0001617  67.4827 159.2539  1.00273206 28732
HORIZONS-3E             
1 43633U 18074B   26194.64002854 -.00000035  00000+0  00000+0 0  9997
2 43633   0.0498 224.9289 0000940  53.6947  52.2963  1.00270118 28608
AEHF-4 (USA 288)        
1 43651U 18079A   26197.25648294 -.00000286  00000+0  00000+0 0  9994
2 43651   1.4405   6.3881 0058522 353.8959 318.6033  1.00276054 28587
BEIDOU-3 G1             
1 43683U 18085A   26197.23028728 -.00000121  00000+0  00000+0 0  9996
2 43683   2.9396  96.5794 0007991 356.8224  83.5330  1.00272490 28356
